{"fetched_at":"2026-07-21T07:06:53.417Z","source":"https://celestrak.org/NORAD/elements/gp.php?NAME=HAWK&FORMAT=JSON","constellation":"hawkeye-360","records":[{"OBJECT_NAME":"HAWK-12A","OBJECT_ID":"2025-138C","EPOCH":"2026-07-20T17:15:32.406912","CLASSIFICATION_TYPE":"U","MEAN_MOTION":15.18428052,"ECCENTRICITY":0.00145709,"INCLINATION":97.442,"RA_OF_ASC_NODE":203.9493,"ARG_OF_PERICENTER":28.7176,"MEAN_ANOMALY":331.4858,"EPHEMERIS_TYPE":0,"NORAD_CAT_ID":64623,"ELEMENT_SET_NO":999,"REV_AT_EPOCH":5895,"BSTAR":0.0001164763,"MEAN_MOTION_DOT":0.00002335,"MEAN_MOTION_DDOT":0},{"OBJECT_NAME":"HAWK-13A","OBJECT_ID":"2026-004AF","EPOCH":"2026-07-20T21:59:32.245152","CLASSIFICATION_TYPE":"U","MEAN_MOTION":15.19386402,"ECCENTRICITY":0.00047001,"INCLINATION":97.4451,"RA_OF_ASC_NODE":200.3101,"ARG_OF_PERICENTER":196.0966,"MEAN_ANOMALY":164.012,"EPHEMERIS_TYPE":0,"NORAD_CAT_ID":67392,"ELEMENT_SET_NO":999,"REV_AT_EPOCH":2888,"BSTAR":0.00013733823,"MEAN_MOTION_DOT":0.00002838,"MEAN_MOTION_DDOT":0},{"OBJECT_NAME":"HAWK-13C","OBJECT_ID":"2026-004AG","EPOCH":"2026-07-20T21:59:20.315904","CLASSIFICATION_TYPE":"U","MEAN_MOTION":15.19382796,"ECCENTRICITY":0.00045321,"INCLINATION":97.4599,"RA_OF_ASC_NODE":200.7452,"ARG_OF_PERICENTER":199.1543,"MEAN_ANOMALY":160.9522,"EPHEMERIS_TYPE":0,"NORAD_CAT_ID":67393,"ELEMENT_SET_NO":999,"REV_AT_EPOCH":2888,"BSTAR":0.00013611388,"MEAN_MOTION_DOT":0.00002811,"MEAN_MOTION_DDOT":0},{"OBJECT_NAME":"HAWK-13B","OBJECT_ID":"2026-004AK","EPOCH":"2026-07-20T21:59:11.984352","CLASSIFICATION_TYPE":"U","MEAN_MOTION":15.19385087,"ECCENTRICITY":0.00057922,"INCLINATION":97.4539,"RA_OF_ASC_NODE":200.5638,"ARG_OF_PERICENTER":201.1902,"MEAN_ANOMALY":158.9094,"EPHEMERIS_TYPE":0,"NORAD_CAT_ID":67396,"ELEMENT_SET_NO":999,"REV_AT_EPOCH":2888,"BSTAR":0.00013582436,"MEAN_MOTION_DOT":0.00002806,"MEAN_MOTION_DDOT":0},{"OBJECT_NAME":"HAWK-14B","OBJECT_ID":"2026-067W","EPOCH":"2026-07-20T19:49:10.610400","CLASSIFICATION_TYPE":"U","MEAN_MOTION":15.18458233,"ECCENTRICITY":0.00009572,"INCLINATION":97.4566,"RA_OF_ASC_NODE":159.7998,"ARG_OF_PERICENTER":332.7657,"MEAN_ANOMALY":27.3527,"EPHEMERIS_TYPE":0,"NORAD_CAT_ID":68436,"ELEMENT_SET_NO":999,"REV_AT_EPOCH":1704,"BSTAR":0.00014620767,"MEAN_MOTION_DOT":0.00002944,"MEAN_MOTION_DDOT":0},{"OBJECT_NAME":"HAWK-14C","OBJECT_ID":"2026-067AB","EPOCH":"2026-07-20T19:49:20.021088","CLASSIFICATION_TYPE":"U","MEAN_MOTION":15.18456351,"ECCENTRICITY":0.00020038,"INCLINATION":97.4502,"RA_OF_ASC_NODE":159.6754,"ARG_OF_PERICENTER":9.3735,"MEAN_ANOMALY":350.7536,"EPHEMERIS_TYPE":0,"NORAD_CAT_ID":68441,"ELEMENT_SET_NO":999,"REV_AT_EPOCH":1704,"BSTAR":0.00014846399,"MEAN_MOTION_DOT":0.00002991,"MEAN_MOTION_DDOT":0},{"OBJECT_NAME":"HAWK-14A","OBJECT_ID":"2026-067AJ","EPOCH":"2026-07-20T19:49:29.228736","CLASSIFICATION_TYPE":"U","MEAN_MOTION":15.18459695,"ECCENTRICITY":0.00026695,"INCLINATION":97.4628,"RA_OF_ASC_NODE":159.9307,"ARG_OF_PERICENTER":356.973,"MEAN_ANOMALY":3.1488,"EPHEMERIS_TYPE":0,"NORAD_CAT_ID":68448,"ELEMENT_SET_NO":999,"REV_AT_EPOCH":1704,"BSTAR":0.00014643512,"MEAN_MOTION_DOT":0.00002949,"MEAN_MOTION_DDOT":0}]}
