HAWK-12A                
1 64623U 25138C   26201.71912508  .00002335  00000+0  11648-3 0  9999
2 64623  97.4420 203.9493 0014570  28.7176 331.4858 15.18428052 58952
HAWK-13A                
1 67392U 26004AF  26201.91634543  .00002838  00000+0  13734-3 0  9996
2 67392  97.4451 200.3101 0004700 196.0966 164.0120 15.19386402 28883
HAWK-13C                
1 67393U 26004AG  26201.91620736  .00002811  00000+0  13611-3 0  9991
2 67393  97.4599 200.7452 0004532 199.1543 160.9522 15.19382796 28881
HAWK-13B                
1 67396U 26004AK  26201.91611093  .00002806  00000+0  13582-3 0  9991
2 67396  97.4539 200.5638 0005792 201.1902 158.9094 15.19385087 28881
HAWK-14B                
1 68436U 26067W   26201.82581725  .00002944  00000+0  14621-3 0  9992
2 68436  97.4566 159.7998 0000957 332.7657  27.3527 15.18458233 17046
HAWK-14C                
1 68441U 26067AB  26201.82592617  .00002991  00000+0  14846-3 0  9991
2 68441  97.4502 159.6754 0002003   9.3735 350.7536 15.18456351 17041
HAWK-14A                
1 68448U 26067AJ  26201.82603274  .00002949  00000+0  14644-3 0  9999
2 68448  97.4628 159.9307 0002669 356.9730   3.1488 15.18459695 17047
